{"fetched_at":"2026-07-19T07:04:47.356Z","source":"https://celestrak.org/NORAD/elements/gp.php?GROUP=kuiper&FORMAT=JSON","constellation":"kuiper","records":[{"OBJECT_NAME":"KUIPER-00140","OBJECT_ID":"2025-228U","EPOCH":"2026-07-18T19:41:51.027936","CLASSIFICATION_TYPE":"U","MEAN_MOTION":14.79928647,"ECCENTRICITY":0.0000818,"INCLINATION":51.8996,"RA_OF_ASC_NODE":125.8007,"ARG_OF_PERICENTER":90.7159,"MEAN_ANOMALY":269.3897,"EPHEMERIS_TYPE":0,"NORAD_CAT_ID":65965,"ELEMENT_SET_NO":999,"REV_AT_EPOCH":4285,"BSTAR":0.00021522,"MEAN_MOTION_DOT":0.0000142,"MEAN_MOTION_DDOT":0},{"OBJECT_NAME":"KUIPER-00141","OBJECT_ID":"2025-228V","EPOCH":"2026-07-18T11:43:24.352320","CLASSIFICATION_TYPE":"U","MEAN_MOTION":14.79938112,"ECCENTRICITY":0.00009548,"INCLINATION":51.9027,"RA_OF_ASC_NODE":122.3273,"ARG_OF_PERICENTER":87.6817,"MEAN_ANOMALY":272.4255,"EPHEMERIS_TYPE":0,"NORAD_CAT_ID":65966,"ELEMENT_SET_NO":999,"REV_AT_EPOCH":4287,"BSTAR":0.00023425914,"MEAN_MOTION_DOT":0.00001565,"MEAN_MOTION_DDOT":0},{"OBJECT_NAME":"KUIPER-00146","OBJECT_ID":"2025-228W","EPOCH":"2026-07-18T18:57:06.655104","CLASSIFICATION_TYPE":"U","MEAN_MOTION":14.79918615,"ECCENTRICITY":0.000084,"INCLINATION":51.9032,"RA_OF_ASC_NODE":123.506,"ARG_OF_PERICENTER":95.5327,"MEAN_ANOMALY":264.5731,"EPHEMERIS_TYPE":0,"NORAD_CAT_ID":65967,"ELEMENT_SET_NO":999,"REV_AT_EPOCH":4288,"BSTAR":0.00021236,"MEAN_MOTION_DOT":0.00001397,"MEAN_MOTION_DDOT":0},{"OBJECT_NAME":"KUIPER-00149","OBJECT_ID":"2025-228X","EPOCH":"2026-07-18T18:16:15.616704","CLASSIFICATION_TYPE":"U","MEAN_MOTION":14.7994182,"ECCENTRICITY":0.000103,"INCLINATION":51.901,"RA_OF_ASC_NODE":118.5161,"ARG_OF_PERICENTER":92.4206,"MEAN_ANOMALY":267.6874,"EPHEMERIS_TYPE":0,"NORAD_CAT_ID":65968,"ELEMENT_SET_NO":999,"REV_AT_EPOCH":4295,"BSTAR":0.000303,"MEAN_MOTION_DOT":0.0000209,"MEAN_MOTION_DDOT":0},{"OBJECT_NAME":"KUIPER-00154","OBJECT_ID":"2025-228Y","EPOCH":"2026-07-18T19:08:45.359808","CLASSIFICATION_TYPE":"U","MEAN_MOTION":14.79932344,"ECCENTRICITY":0.0000876,"INCLINATION":51.9,"RA_OF_ASC_NODE":115.8444,"ARG_OF_PERICENTER":94.0089,"MEAN_ANOMALY":266.0973,"EPHEMERIS_TYPE":0,"NORAD_CAT_ID":65969,"ELEMENT_SET_NO":999,"REV_AT_EPOCH":4299,"BSTAR":0.0002222,"MEAN_MOTION_DOT":0.00001473,"MEAN_MOTION_DDOT":0},{"OBJECT_NAME":"KUIPER-00157","OBJECT_ID":"2025-228Z","EPOCH":"2026-07-18T20:25:21.056160","CLASSIFICATION_TYPE":"U","MEAN_MOTION":14.81200757,"ECCENTRICITY":0.0001282,"INCLINATION":51.9027,"RA_OF_ASC_NODE":118.1297,"ARG_OF_PERICENTER":61.4296,"MEAN_ANOMALY":298.6796,"EPHEMERIS_TYPE":0,"NORAD_CAT_ID":65970,"ELEMENT_SET_NO":999,"REV_AT_EPOCH":4296,"BSTAR":0.00018656,"MEAN_MOTION_DOT":0.00001242,"MEAN_MOTION_DDOT":0},{"OBJECT_NAME":"KUIPER-00144","OBJECT_ID":"2025-301A","EPOCH":"2026-07-18T08:58:16.962816","CLASSIFICATION_TYPE":"U","MEAN_MOTION":14.79926095,"ECCENTRICITY":0.00004456,"INCLINATION":51.9004,"RA_OF_ASC_NODE":197.734,"ARG_OF_PERICENTER":57.6991,"MEAN_ANOMALY":302.4015,"EPHEMERIS_TYPE":0,"NORAD_CAT_ID":67133,"ELEMENT_SET_NO":999,"REV_AT_EPOCH":3322,"BSTAR":0.00017045192,"MEAN_MOTION_DOT":0.00001078,"MEAN_MOTION_DDOT":0},{"OBJECT_NAME":"KUIPER-00164","OBJECT_ID":"2025-301B","EPOCH":"2026-07-18T20:00:01.999008","CLASSIFICATION_TYPE":"U","MEAN_MOTION":14.77839231,"ECCENTRICITY":0.0000749,"INCLINATION":51.9016,"RA_OF_ASC_NODE":208.1879,"ARG_OF_PERICENTER":93.8683,"MEAN_ANOMALY":278.4668,"EPHEMERIS_TYPE":0,"NORAD_CAT_ID":67134,"ELEMENT_SET_NO":999,"REV_AT_EPOCH":511,"BSTAR":0.015182,"MEAN_MOTION_DOT":0.00111774,"MEAN_MOTION_DDOT":0},{"OBJECT_NAME":"KUIPER-00175","OBJECT_ID":"2025-301C","EPOCH":"2026-07-18T16:23:32.415648","CLASSIFICATION_TYPE":"U","MEAN_MOTION":14.79917498,"ECCENTRICITY":0.0000676,"INCLINATION":51.8992,"RA_OF_ASC_NODE":191.3256,"ARG_OF_PERICENTER":91.8588,"MEAN_ANOMALY":268.2452,"EPHEMERIS_TYPE":0,"NORAD_CAT_ID":67135,"ELEMENT_SET_NO":999,"REV_AT_EPOCH":3341,"BSTAR":0.0001521,"MEAN_MOTION_DOT":0.00000938,"MEAN_MOTION_DDOT":0},{"OBJECT_NAME":"KUIPER-00179","OBJECT_ID":"2025-301D","EPOCH":"2026-07-18T10:19:59.344608","CLASSIFICATION_TYPE":"U","MEAN_MOTION":14.79939724,"ECCENTRICITY":0.00003925,"INCLINATION":51.8975,"RA_OF_ASC_NODE":207.4526,"ARG_OF_PERICENTER":61.7279,"MEAN_ANOMALY":298.3723,"EPHEMERIS_TYPE":0,"NORAD_CAT_ID":67136,"ELEMENT_SET_NO":999,"REV_AT_EPOCH":3327,"BSTAR":0.00015411699,"MEAN_MOTION_DOT":0.00000954,"MEAN_MOTION_DDOT":0},{"OBJECT_NAME":"KUIPER-00181","OBJECT_ID":"2025-301E","EPOCH":"2026-07-18T06:46:04.507104","CLASSIFICATION_TYPE":"U","MEAN_MOTION":14.79927922,"ECCENTRICITY":0.00009611,"INCLINATION":51.9017,"RA_OF_ASC_NODE":220.6489,"ARG_OF_PERICENTER":66.8847,"MEAN_ANOMALY":293.2216,"EPHEMERIS_TYPE":0,"NORAD_CAT_ID":67137,"ELEMENT_SET_NO":999,"REV_AT_EPOCH":3305,"BSTAR":0.00014362111,"MEAN_MOTION_DOT":0.00000874,"MEAN_MOTION_DDOT":0},{"OBJECT_NAME":"KUIPER-00183","OBJECT_ID":"2025-301F","EPOCH":"2026-07-18T09:37:05.106720","CLASSIFICATION_TYPE":"U","MEAN_MOTION":14.92769449,"ECCENTRICITY":0.00095638,"INCLINATION":51.893,"RA_OF_ASC_NODE":192.0998,"ARG_OF_PERICENTER":133.316,"MEAN_ANOMALY":226.8607,"EPHEMERIS_TYPE":0,"NORAD_CAT_ID":67138,"ELEMENT_SET_NO":999,"REV_AT_EPOCH":3347,"BSTAR":0.00017054674,"MEAN_MOTION_DOT":0.00001532,"MEAN_MOTION_DDOT":0},{"OBJECT_NAME":"KUIPER-00184","OBJECT_ID":"2025-301G","EPOCH":"2026-07-18T17:45:18.236160","CLASSIFICATION_TYPE":"U","MEAN_MOTION":14.79940351,"ECCENTRICITY":0.0000379,"INCLINATION":51.8985,"RA_OF_ASC_NODE":201.0893,"ARG_OF_PERICENTER":51.9741,"MEAN_ANOMALY":308.1255,"EPHEMERIS_TYPE":0,"NORAD_CAT_ID":67139,"ELEMENT_SET_NO":999,"REV_AT_EPOCH":3348,"BSTAR":0.00015064,"MEAN_MOTION_DOT":0.00000928,"MEAN_MOTION_DDOT":0},{"OBJECT_NAME":"KUIPER-00186","OBJECT_ID":"2025-301H","EPOCH":"2026-07-18T18:55:25.364064","CLASSIFICATION_TYPE":"U","MEAN_MOTION":14.79930338,"ECCENTRICITY":0.0000371,"INCLINATION":51.9016,"RA_OF_ASC_NODE":218.4199,"ARG_OF_PERICENTER":61.3628,"MEAN_ANOMALY":298.7371,"EPHEMERIS_TYPE":0,"NORAD_CAT_ID":67140,"ELEMENT_SET_NO":999,"REV_AT_EPOCH":3297,"BSTAR":0.00014613,"MEAN_MOTION_DOT":0.00000893,"MEAN_MOTION_DDOT":0},{"OBJECT_NAME":"KUIPER-00187","OBJECT_ID":"2025-301J","EPOCH":"2026-07-18T10:45:20.435616","CLASSIFICATION_TYPE":"U","MEAN_MOTION":14.799395,"ECCENTRICITY":0.00003222,"INCLINATION":51.9021,"RA_OF_ASC_NODE":222.4485,"ARG_OF_PERICENTER":83.0847,"MEAN_ANOMALY":277.0152,"EPHEMERIS_TYPE":0,"NORAD_CAT_ID":67141,"ELEMENT_SET_NO":999,"REV_AT_EPOCH":3288,"BSTAR":0.00014207374,"MEAN_MOTION_DOT":0.00000862,"MEAN_MOTION_DDOT":0},{"OBJECT_NAME":"KUIPER-00188","OBJECT_ID":"2025-301K","EPOCH":"2026-07-18T09:09:57.996864","CLASSIFICATION_TYPE":"U","MEAN_MOTION":14.79927729,"ECCENTRICITY":0.00005018,"INCLINATION":51.9013,"RA_OF_ASC_NODE":190.3276,"ARG_OF_PERICENTER":64.101,"MEAN_ANOMALY":296.0004,"EPHEMERIS_TYPE":0,"NORAD_CAT_ID":67142,"ELEMENT_SET_NO":999,"REV_AT_EPOCH":3332,"BSTAR":0.00016430936,"MEAN_MOTION_DOT":0.00001032,"MEAN_MOTION_DDOT":0}]}
