KUIPER-00140            
1 65965U 25228U   26199.82072949  .00001420  00000+0  21522-3 0  9999
2 65965  51.8996 125.8007 0000818  90.7159 269.3897 14.79928647 42852
KUIPER-00141            
1 65966U 25228V   26199.48847630  .00001565  00000+0  23426-3 0  9994
2 65966  51.9027 122.3273 0000954  87.6817 272.4255 14.79938112 42876
KUIPER-00146            
1 65967U 25228W   26199.78966036  .00001397  00000+0  21236-3 0  9990
2 65967  51.9032 123.5060 0000840  95.5327 264.5731 14.79918615 42886
KUIPER-00149            
1 65968U 25228X   26199.76129186  .00002090  00000+0  30300-3 0  9999
2 65968  51.9010 118.5161 0001030  92.4206 267.6874 14.79941820 42957
KUIPER-00154            
1 65969U 25228Y   26199.79774722  .00001473  00000+0  22220-3 0  9991
2 65969  51.9000 115.8444 0000876  94.0089 266.0973 14.79932344 42993
KUIPER-00157            
1 65970U 25228Z   26199.85093815  .00001242  00000+0  18656-3 0  9999
2 65970  51.9027 118.1297 0001282  61.4296 298.6796 14.81200757 42966
KUIPER-00144            
1 67133U 25301A   26199.37380744  .00001078  00000+0  17045-3 0  9999
2 67133  51.9004 197.7340 0000445  57.6991 302.4015 14.79926095 33229
KUIPER-00164            
1 67134U 25301B   26199.83335647  .00111774  00000+0  15182-1 0  9996
2 67134  51.9016 208.1879 0000749  93.8683 278.4668 14.77839231  5110
KUIPER-00175            
1 67135U 25301C   26199.68301407  .00000938  00000+0  15210-3 0  9990
2 67135  51.8992 191.3256 0000676  91.8588 268.2452 14.79917498 33412
KUIPER-00179            
1 67136U 25301D   26199.43054797  .00000954  00000+0  15412-3 0  9993
2 67136  51.8975 207.4526 0000392  61.7279 298.3723 14.79939724 33276
KUIPER-00181            
1 67137U 25301E   26199.28199661  .00000874  00000+0  14362-3 0  9991
2 67137  51.9017 220.6489 0000961  66.8847 293.2216 14.79927922 33053
KUIPER-00183            
1 67138U 25301F   26199.40075355  .00001532  00000+0  17055-3 0  9993
2 67138  51.8930 192.0998 0009563 133.3160 226.8607 14.92769449 33474
KUIPER-00184            
1 67139U 25301G   26199.73979440  .00000928  00000+0  15064-3 0  9994
2 67139  51.8985 201.0893 0000379  51.9741 308.1255 14.79940351 33488
KUIPER-00186            
1 67140U 25301H   26199.78848801  .00000893  00000+0  14613-3 0  9997
2 67140  51.9016 218.4199 0000371  61.3628 298.7371 14.79930338 32978
KUIPER-00187            
1 67141U 25301J   26199.44815319  .00000862  00000+0  14207-3 0  9994
2 67141  51.9021 222.4485 0000322  83.0847 277.0152 14.79939500 32885
KUIPER-00188            
1 67142U 25301K   26199.38192126  .00001032  00000+0  16431-3 0  9993
2 67142  51.9013 190.3276 0000501  64.1010 296.0004 14.79927729 33326
